CTC2_L_00400001-01
1 29301U 26419ZZ  26037.47795139  .00000000  00000+0  00000-0 0  9999
2 29301  75.0000   0.0000 0000000   0.0000   0.0000 12.77881336    16
CTC2_L_00400001-02
1 29302U 25679FY  26037.47795139  .00000000  00000+0  00000-0 0  9997
2 29302  75.0000   0.0000 0000000   0.0000  90.0000 12.77881336    16
CTC2_L_00400001-03
1 29303U 25771PL  26037.47795139  .00000000  00000+0  00000-0 0  9991
2 29303  75.0000   0.0000 0000000   0.0000 180.0000 12.77881336    17
CTC2_L_00400001-04
1 29304U 22945VM  26037.47795139  .00000000  00000+0  00000-0 0  9992
2 29304  75.0000   0.0000 0000000   0.0000 270.0000 12.77881336    18
CTC2_L_00400002-01
1 29305U 26183RQ  26037.47795139  .00000000  00000+0  00000-0 0  9991
2 29305  75.0000  12.0000 0000000   0.0000  12.0000 12.77881336    16
CTC2_L_00400002-02
1 29306U 22004BH  26037.47795139  .00000000  00000+0  00000-0 0  9990
2 29306  75.0000  12.0000 0000000   0.0000 102.0000 12.77881336    17
CTC2_L_00400002-03
1 29307U 24161YS  26037.47795139  .00000000  00000+0  00000-0 0  9997
2 29307  75.0000  12.0000 0000000   0.0000 192.0000 12.77881336    17
CTC2_L_00400002-04
1 29308U 24874YG  26037.47795139  .00000000  00000+0  00000-0 0  9999
2 29308  75.0000  12.0000 0000000   0.0000 282.0000 12.77881336    18
CTC2_L_00400003-01
1 29309U 22276BC  26037.47795139  .00000000  00000+0  00000-0 0  9994
2 29309  75.0000  24.0000 0000000   0.0000  24.0000 12.77881336    16
CTC2_L_00400003-02
1 29310U 24071ZH  26037.47795139  .00000000  00000+0  00000-0 0  9991
2 29310  75.0000  24.0000 0000000   0.0000 114.0000 12.77881336    18
CTC2_L_00400003-03
1 29311U 25229JK  26037.47795139  .00000000  00000+0  00000-0 0  9998
2 29311  75.0000  24.0000 0000000   0.0000 204.0000 12.77881336    19
CTC2_L_00400003-04
1 29312U 25606DE  26037.47795139  .00000000  00000+0  00000-0 0  9998
2 29312  75.0000  24.0000 0000000   0.0000 294.0000 12.77881336    19
CTC2_L_00400004-01
1 29313U 25860RP  26037.47795139  .00000000  00000+0  00000-0 0  9991
2 29313  75.0000  36.0000 0000000   0.0000  36.0000 12.77881336    17
CTC2_L_00400004-02
1 29314U 23043NJ  26037.47795139  .00000000  00000+0  00000-0 0  9993
2 29314  75.0000  36.0000 0000000   0.0000 126.0000 12.77881336    18
CTC2_L_00400004-03
1 29315U 23425A   26037.47795139  .00000000  00000+0  00000-0 0  9998
2 29315  75.0000  36.0000 0000000   0.0000 216.0000 12.77881336    19
CTC2_L_00400004-04
1 29316U 22525TN  26037.47795139  .00000000  00000+0  00000-0 0  9999
2 29316  75.0000  36.0000 0000000   0.0000 306.0000 12.77881336    10
CTC2_L_00400005-01
1 29317U 24230DX  26037.47795139  .00000000  00000+0  00000-0 0  9995
2 29317  75.0000  48.0000 0000000   0.0000  48.0000 12.77881336    17
CTC2_L_00400005-02
1 29318U 25256UQ  26037.47795139  .00000000  00000+0  00000-0 0  9995
2 29318  75.0000  48.0000 0000000   0.0000 138.0000 12.77881336    18
CTC2_L_00400005-03
1 29319U 26562F   26037.47795139  .00000000  00000+0  00000-0 0  9997
2 29319  75.0000  48.0000 0000000   0.0000 228.0000 12.77881336    19
CTC2_L_00400005-04
1 29320U 25501MM  26037.47795139  .00000000  00000+0  00000-0 0  9991
2 29320  75.0000  48.0000 0000000   0.0000 318.0000 12.77881336    11
CTC2_L_00400006-01
1 29321U 24236IP  26037.47795139  .00000000  00000+0  00000-0 0  9996
2 29321  75.0000  60.0000 0000000   0.0000  60.0000 12.77881336    10
CTC2_L_00400006-02
1 29322U 26560RY  26037.47795139  .00000000  00000+0  00000-0 0  9999
2 29322  75.0000  60.0000 0000000   0.0000 150.0000 12.77881336    11
CTC2_L_00400006-03
1 29323U 24110LN  26037.47795139  .00000000  00000+0  00000-0 0  9999
2 29323  75.0000  60.0000 0000000   0.0000 240.0000 12.77881336    12
CTC2_L_00400006-04
1 29324U 26262XV  26037.47795139  .00000000  00000+0  00000-0 0  9990
2 29324  75.0000  60.0000 0000000   0.0000 330.0000 12.77881336    13
CTC2_L_00400007-01
1 29325U 26362MK  26037.47795139  .00000000  00000+0  00000-0 0  9992
2 29325  75.0000  72.0000 0000000   0.0000  72.0000 12.77881336    10
CTC2_L_00400007-02
1 29326U 23503OL  26037.47795139  .00000000  00000+0  00000-0 0  9997
2 29326  75.0000  72.0000 0000000   0.0000 162.0000 12.77881336    11
CTC2_L_00400007-03
1 29327U 24998YA  26037.47795139  .00000000  00000+0  00000-0 0  9997
2 29327  75.0000  72.0000 0000000   0.0000 252.0000 12.77881336    12
CTC2_L_00400007-04
1 29328U 26725WH  26037.47795139  .00000000  00000+0  00000-0 0  9998
2 29328  75.0000  72.0000 0000000   0.0000 342.0000 12.77881336    13
CTC2_L_00400008-01
1 29329U 26890MS  26037.47795139  .00000000  00000+0  00000-0 0  9992
2 29329  75.0000  84.0000 0000000   0.0000  84.0000 12.77881336    10
CTC2_L_00400008-02
1 29330U 22550MH  26037.47795139  .00000000  00000+0  00000-0 0  9993
2 29330  75.0000  84.0000 0000000   0.0000 174.0000 12.77881336    12
CTC2_L_00400008-03
1 29331U 26056WC  26037.47795139  .00000000  00000+0  00000-0 0  9999
2 29331  75.0000  84.0000 0000000   0.0000 264.0000 12.77881336    13
CTC2_L_00400008-04
1 29332U 22266TQ  26037.47795139  .00000000  00000+0  00000-0 0  9999
2 29332  75.0000  84.0000 0000000   0.0000 354.0000 12.77881336    14
CTC2_L_00400009-01
1 29333U 25497XV  26037.47795139  .00000000  00000+0  00000-0 0  9999
2 29333  75.0000  96.0000 0000000   0.0000  96.0000 12.77881336    11
CTC2_L_00400009-02
1 29334U 24815DZ  26037.47795139  .00000000  00000+0  00000-0 0  9993
2 29334  75.0000  96.0000 0000000   0.0000 186.0000 12.77881336    12
CTC2_L_00400009-03
1 29335U 24323GG  26037.47795139  .00000000  00000+0  00000-0 0  9998
2 29335  75.0000  96.0000 0000000   0.0000 276.0000 12.77881336    13
CTC2_L_00400009-04
1 29336U 26559XL  26037.47795139  .00000000  00000+0  00000-0 0  9992
2 29336  75.0000  96.0000 0000000   0.0000   6.0000 12.77881336    15
CTC2_L_00400010-01
1 29337U 26586LP  26037.47795139  .00000000  00000+0  00000-0 0  9993
2 29337  75.0000 108.0000 0000000   0.0000 108.0000 12.77881336    13
CTC2_L_00400010-02
1 29338U 23592RV  26037.47795139  .00000000  00000+0  00000-0 0  9998
2 29338  75.0000 108.0000 0000000   0.0000 198.0000 12.77881336    13
CTC2_L_00400010-03
1 29339U 24369GG  26037.47795139  .00000000  00000+0  00000-0 0  9992
2 29339  75.0000 108.0000 0000000   0.0000 288.0000 12.77881336    14
CTC2_L_00400010-04
1 29340U 26323EH  26037.47795139  .00000000  00000+0  00000-0 0  9996
2 29340  75.0000 108.0000 0000000   0.0000  18.0000 12.77881336    17
CTC2_L_00400011-01
1 29341U 26739SP  26037.47795139  .00000000  00000+0  00000-0 0  9998
2 29341  75.0000 120.0000 0000000   0.0000 120.0000 12.77881336    16
CTC2_L_00400011-02
1 29342U 25179GY  26037.47795139  .00000000  00000+0  00000-0 0  9996
2 29342  75.0000 120.0000 0000000   0.0000 210.0000 12.77881336    17
CTC2_L_00400011-03
1 29343U 22458WW  26037.47795139  .00000000  00000+0  00000-0 0  9994
2 29343  75.0000 120.0000 0000000   0.0000 300.0000 12.77881336    18
CTC2_L_00400011-04
1 29344U 24978JE  26037.47795139  .00000000  00000+0  00000-0 0  9994
2 29344  75.0000 120.0000 0000000   0.0000  30.0000 12.77881336    19
CTC2_L_00400012-01
1 29345U 22920JZ  26037.47795139  .00000000  00000+0  00000-0 0  9990
2 29345  75.0000 132.0000 0000000   0.0000 132.0000 12.77881336    16
CTC2_L_00400012-02
1 29346U 22463RU  26037.47795139  .00000000  00000+0  00000-0 0  9993
2 29346  75.0000 132.0000 0000000   0.0000 222.0000 12.77881336    17
CTC2_L_00400012-03
1 29347U 26977P   26037.47795139  .00000000  00000+0  00000-0 0  9998
2 29347  75.0000 132.0000 0000000   0.0000 312.0000 12.77881336    18
CTC2_L_00400012-04
1 29348U 22159AF  26037.47795139  .00000000  00000+0  00000-0 0  9997
2 29348  75.0000 132.0000 0000000   0.0000  42.0000 12.77881336    19
CTC2_L_00400013-01
1 29349U 22147U   26037.47795139  .00000000  00000+0  00000-0 0  9995
2 29349  75.0000 144.0000 0000000   0.0000 144.0000 12.77881336    16
CTC2_L_00400013-02
1 29350U 24495PS  26037.47795139  .00000000  00000+0  00000-0 0  9995
2 29350  75.0000 144.0000 0000000   0.0000 234.0000 12.77881336    18
CTC2_L_00400013-03
1 29351U 24768GH  26037.47795139  .00000000  00000+0  00000-0 0  9999
2 29351  75.0000 144.0000 0000000   0.0000 324.0000 12.77881336    19
CTC2_L_00400013-04
1 29352U 26584A   26037.47795139  .00000000  00000+0  00000-0 0  9998
2 29352  75.0000 144.0000 0000000   0.0000  54.0000 12.77881336    10
CTC2_L_00400014-01
1 29353U 23208KJ  26037.47795139  .00000000  00000+0  00000-0 0  9999
2 29353  75.0000 156.0000 0000000   0.0000 156.0000 12.77881336    17
CTC2_L_00400014-02
1 29354U 22329DQ  26037.47795139  .00000000  00000+0  00000-0 0  9993
2 29354  75.0000 156.0000 0000000   0.0000 246.0000 12.77881336    18
CTC2_L_00400014-03
1 29355U 23500VA  26037.47795139  .00000000  00000+0  00000-0 0  9996
2 29355  75.0000 156.0000 0000000   0.0000 336.0000 12.77881336    19
CTC2_L_00400014-04
1 29356U 25267OS  26037.47795139  .00000000  00000+0  00000-0 0  9999
2 29356  75.0000 156.0000 0000000   0.0000  66.0000 12.77881336    10
CTC2_L_00400015-01
1 29357U 23348VV  26037.47795139  .00000000  00000+0  00000-0 0  9998
2 29357  75.0000 168.0000 0000000   0.0000 168.0000 12.77881336    17
CTC2_L_00400015-02
1 29358U 22386FK  26037.47795139  .00000000  00000+0  00000-0 0  9990
2 29358  75.0000 168.0000 0000000   0.0000 258.0000 12.77881336    18
CTC2_L_00400015-03
1 29359U 26639U   26037.47795139  .00000000  00000+0  00000-0 0  9996
2 29359  75.0000 168.0000 0000000   0.0000 348.0000 12.77881336    19
CTC2_L_00400015-04
1 29360U 26501QC  26037.47795139  .00000000  00000+0  00000-0 0  9996
2 29360  75.0000 168.0000 0000000   0.0000  78.0000 12.77881336    11
CTC2_L_00400016-01
1 29361U 22115UX  26037.47795139  .00000000  00000+0  00000-0 0  9994
2 29361  75.0000 180.0000 0000000   0.0000 180.0000 12.77881336    10
CTC2_L_00400016-02
1 29362U 24411QX  26037.47795139  .00000000  00000+0  00000-0 0  9996
2 29362  75.0000 180.0000 0000000   0.0000 270.0000 12.77881336    11
